{"type": "FeatureCollection", "features": [{"type": "Feature", "geometry": {"type": "Polygon", "coordinates": [[[-8.554698, 41.022882], [-8.641575, 41.023449], [-8.642808, 41.024385], [-8.649315, 41.038704], [-8.649666, 41.039487], [-8.65413, 41.050206], [-8.704827, 41.178519], [-8.709588, 41.196762], [-8.709615, 41.197392], [-8.709615, 41.221287], [-8.709597, 41.315859], [-8.706375, 41.320386], [-8.701677, 41.321907], [-8.697663, 41.322375], [-8.474958, 41.322627], [-8.473365, 41.320206], [-8.456328, 41.288364], [-8.454249, 41.273613], [-8.454069, 41.071824], [-8.458497, 41.042871], [-8.460117, 41.032854], [-8.554698, 41.022882]]]}, "properties": {"name": "porto_operating_region_convex_hull_v1", "source": "Convex hull of robust taxi trip start/end points", "endpoint_percentile_max": 0.999, "endpoint_percentile_min": 0.001}}]}
